BREEZE-M R/B            
1 38746U 12044C   21341.85728495  .00003177  00000-0  20375-3 0  9996
2 38746  49.6791 334.5513 2376547 136.8256 244.5589 10.56223333343606
BREEZE-M DEB            
1 38884U 12044R   21342.36905040  .00008856  22872-5  25124-3 0  9991
2 38884  50.0207 331.4082 2248172 311.7857  31.1105 10.94330693356245
BREEZE-M DEB            
1 38888U 12044V   21342.29834844  .00032616  45313-5  48365-3 0  9998
2 38888  50.0237 197.2225 1588662 221.4948 125.4006 12.41383300383623
BREEZE-M DEB            
1 38921U 12044BE  21342.54523105  .00079869  85274-5  59646-3 0  9994
2 38921  50.1720 123.1196 0881886  68.9777 300.3121 14.05264692399286
BREEZE-M DEB            
1 38922U 12044BF  21341.93564488  .00010328  30405-5  23699-3 0  9996
2 38922  50.0713 297.0296 2037739 253.2036  83.6555 11.40880552365559
BREEZE-M DEB            
1 38926U 12044BK  21342.38353930  .00075988  61180-5  11028-2 0  9997
2 38926  49.9864 334.8119 1320357 353.6324   4.9104 12.99401145395535
BREEZE-M DEB            
1 38948U 12044CH  21341.81995406  .00035259  59912-5  56654-3 0  9990
2 38948  50.0514 282.4156 1456898  70.4474 304.7589 12.68791530389237
BREEZE-M DEB            
1 38957U 12044CQ  21341.44752352  .00046799  56301-5  61297-3 0  9999
2 38957  49.9993  35.4759 1416194   3.3879 357.5447 12.80248544385825
BREEZE-M DEB            
1 38959U 12044CS  21342.35543042  .00343448  10055-4  88058-3 0  9996
2 38959  49.9236  93.8490 0298351  16.4539 344.5859 15.48543032378290
BREEZE-M DEB            
1 38960U 12044CT  21342.41833504  .00015779  40526-5  33777-3 0  9998
2 38960  50.1178 119.9360 1701744 309.7954  36.4715 12.12608270377237
BREEZE-M DEB            
1 38961U 12044CU  21342.50320898  .00034054  60146-5  53451-3 0  9994
2 38961  50.0604 266.1016 1455184  76.7432 299.1185 12.69524120389673
